start=new Date('2023-04-02T00:00:00.000Z').valueOf();
sats=[{"LAUNCH_DATE":"2022-06-17","OBJECT_NAME":"STARLINK-4186","ARG_OF_PERICENTER":"86.1825","ELEMENT_SET_NO":"999","DECAY_DATE":null,"RCS_SIZE":"LARGE","TLE_LINE1":"1 52880U 22062BC  23091.89463313  .00023480  00000-0  14884-2 0  9991","MEAN_MOTION_DDOT":"0.0000000000000","TIME_SYSTEM":"UTC","RA_OF_ASC_NODE":"150.0862","MEAN_MOTION_DOT":"0.00023480","SEMIMAJOR_AXIS":"6917.876","OBJECT_TYPE":"PAYLOAD","OBJECT_ID":"2022-062BC","GP_ID":"229279588","PERIAPSIS":"538.731","BSTAR":"0.00148840000000","REF_FRAME":"TEME","MEAN_ANOMALY":"273.9334","PERIOD":"95.437","TLE_LINE2":"2 52880  53.2151 150.0862 0001460  86.1825 273.9334 15.08841371 44114","COUNTRY_CODE":"US","EPHEMERIS_TYPE":"0","CLASSIFICATION_TYPE":"U","MEAN_ELEMENT_THEORY":"SGP4","MEAN_MOTION":"15.08841371","FILE":"3877516","ECCENTRICITY":"0.00014600","NORAD_CAT_ID":"52880","REV_AT_EPOCH":"4411","APOAPSIS":"540.751","CENTER_NAME":"EARTH","INCLINATION":"53.2151","EPOCH":"2023-04-01T21:28:16.302432","SITE":"AFETR"},{"TIME_SYSTEM":"UTC","RA_OF_ASC_NODE":"150.0718","MEAN_MOTION_DOT":"0.00022373","MEAN_MOTION_DDOT":"0.0000000000000","ARG_OF_PERICENTER":"57.1594","OBJECT_NAME":"STARLINK-4192","ELEMENT_SET_NO":"999","DECAY_DATE":null,"TLE_LINE1":"1 52881U 22062BD  23091.89831469  .00022373  00000-0  14194-2 0  9997","RCS_SIZE":"LARGE","LAUNCH_DATE":"2022-06-17","INCLINATION":"53.2150","CENTER_NAME":"EARTH","APOAPSIS":"540.964","EPOCH":"2023-04-01T21:33:34.389216","SITE":"AFETR","FILE":"3877516","ECCENTRICITY":"0.00017560","REV_AT_EPOCH":"4411","NORAD_CAT_ID":"52881","MEAN_ANOMALY":"302.9567","COUNTRY_CODE":"US","TLE_LINE2":"2 52881  53.2150 150.0718 0001756  57.1594 302.9567 15.08838601 44116","CLASSIFICATION_TYPE":"U","EPHEMERIS_TYPE":"0","PERIOD":"95.438","MEAN_MOTION":"15.08838601","MEAN_ELEMENT_THEORY":"SGP4","SEMIMAJOR_AXIS":"6917.885","OBJECT_TYPE":"PAYLOAD","OBJECT_ID":"2022-062BD","PERIAPSIS":"538.535","GP_ID":"229277838","REF_FRAME":"TEME","BSTAR":"0.00141940000000"},{"CENTER_NAME":"EARTH","INCLINATION":"53.2152","APOAPSIS":"540.650","EPOCH":"2023-04-01T21:17:40.380288","SITE":"AFETR","FILE":"3877516","ECCENTRICITY":"0.00013010","REV_AT_EPOCH":"4411","NORAD_CAT_ID":"52882","MEAN_ANOMALY":"268.2987","TLE_LINE2":"2 52882  53.2152 150.1181 0001301  91.8154 268.2987 15.08838580 44113","COUNTRY_CODE":"US","EPHEMERIS_TYPE":"0","CLASSIFICATION_TYPE":"U","PERIOD":"95.438","MEAN_MOTION":"15.08838580","MEAN_ELEMENT_THEORY":"SGP4","SEMIMAJOR_AXIS":"6917.885","OBJECT_TYPE":"PAYLOAD","OBJECT_ID":"2022-062BE","GP_ID":"229278589","PERIAPSIS":"538.850","BSTAR":"0.00059611000000","REF_FRAME":"TEME","TIME_SYSTEM":"UTC","RA_OF_ASC_NODE":"150.1181","MEAN_MOTION_DOT":"0.00009212","MEAN_MOTION_DDOT":"0.0000000000000","ARG_OF_PERICENTER":"91.8154","OBJECT_NAME":"STARLINK-4181","DECAY_DATE":null,"ELEMENT_SET_NO":"999","TLE_LINE1":"1 52882U 22062BE  23091.88727292  .00009212  00000-0  59611-3 0  9996","RCS_SIZE":"LARGE","LAUNCH_DATE":"2022-06-17"},{"TLE_LINE1":"1 52986U 22076A   23091.75478865  .00004890  00000-0  32519-3 0  9996","RCS_SIZE":"LARGE","ELEMENT_SET_NO":"999","DECAY_DATE":null,"OBJECT_NAME":"STARLINK-4260","ARG_OF_PERICENTER":"125.1689","LAUNCH_DATE":"2022-07-07","RA_OF_ASC_NODE":"230.7086","MEAN_MOTION_DOT":"0.00004890","TIME_SYSTEM":"UTC","MEAN_MOTION_DDOT":"0.0000000000000","MEAN_ELEMENT_THEORY":"SGP4","MEAN_MOTION":"15.08832467","PERIOD":"95.438","TLE_LINE2":"2 52986  53.2150 230.7086 0001668 125.1689 234.9459 15.08832467 40865","EPHEMERIS_TYPE":"0","COUNTRY_CODE":"US","CLASSIFICATION_TYPE":"U","MEAN_ANOMALY":"234.9459","REF_FRAME":"TEME","BSTAR":"0.00032519000000","GP_ID":"229278097","PERIAPSIS":"538.615","OBJECT_ID":"2022-076A","OBJECT_TYPE":"PAYLOAD","SEMIMAJOR_AXIS":"6917.903","SITE":"AFETR","EPOCH":"2023-04-01T18:06:53.739360","APOAPSIS":"540.922","INCLINATION":"53.2150","CENTER_NAME":"EARTH","NORAD_CAT_ID":"52986","REV_AT_EPOCH":"4086","ECCENTRICITY":"0.00016680","FILE":"3877516"},{"SITE":"AFETR","EPOCH":"2023-04-01T17:28:28.801632","INCLINATION":"53.2163","CENTER_NAME":"EARTH","APOAPSIS":"541.019","REV_AT_EPOCH":"4072","NORAD_CAT_ID":"52987","ECCENTRICITY":"0.00017700","FILE":"3877516","MEAN_MOTION":"15.08823814","MEAN_ELEMENT_THEORY":"SGP4","COUNTRY_CODE":"US","TLE_LINE2":"2 52987  53.2163 240.8276 0001770 107.9642 252.1543 15.08823814 40721","CLASSIFICATION_TYPE":"U","EPHEMERIS_TYPE":"0","PERIOD":"95.439","MEAN_ANOMALY":"252.1543","REF_FRAME":"TEME","BSTAR":"0.00011875000000","PERIAPSIS":"538.570","GP_ID":"229279347","OBJECT_TYPE":"PAYLOAD","OBJECT_ID":"2022-076B","SEMIMAJOR_AXIS":"6917.930","RA_OF_ASC_NODE":"240.8276","MEAN_MOTION_DOT":"0.00001602","TIME_SYSTEM":"UTC","MEAN_MOTION_DDOT":"0.0000000000000","TLE_LINE1":"1 52987U 22076B   23091.72811113  .00001602  00000-0  11875-3 0  9991","RCS_SIZE":"LARGE","DECAY_DATE":null,"ELEMENT_SET_NO":"999","ARG_OF_PERICENTER":"107.9642","OBJECT_NAME":"STARLINK-4259","LAUNCH_DATE":"2022-07-07"},{"LAUNCH_DATE":"2022-07-07","ARG_OF_PERICENTER":"112.6097","OBJECT_NAME":"STARLINK-4291","ELEMENT_SET_NO":"999","DECAY_DATE":null,"RCS_SIZE":"LARGE","TLE_LINE1":"1 52988U 22076C   23091.68487134  .00023392  00000-0  14837-2 0  9999","MEAN_MOTION_DDOT":"0.0000000000000","TIME_SYSTEM":"UTC","RA_OF_ASC_NODE":"231.0281","MEAN_MOTION_DOT":"0.00023392","SEMIMAJOR_AXIS":"6917.935","OBJECT_TYPE":"PAYLOAD","OBJECT_ID":"2022-076C","GP_ID":"229279597","PERIAPSIS":"538.884","BSTAR":"0.00148370000000","REF_FRAME":"TEME","MEAN_ANOMALY":"247.5035","TLE_LINE2":"2 52988  53.2148 231.0281 0001324 112.6097 247.5035 15.08822052 40856","CLASSIFICATION_TYPE":"U","COUNTRY_CODE":"US","EPHEMERIS_TYPE":"0","PERIOD":"95.439","MEAN_MOTION":"15.08822052","MEAN_ELEMENT_THEORY":"SGP4","FILE":"3877516","ECCENTRICITY":"0.00013240","REV_AT_EPOCH":"4085","NORAD_CAT_ID":"52988","CENTER_NAME":"EARTH","INCLINATION":"53.2148","APOAPSIS":"540.716","EPOCH":"2023-04-01T16:26:12.883776","SITE":"AFETR"},{"MEAN_MOTION_DDOT":"0.0000000000000","RA_OF_ASC_NODE":"241.1478","MEAN_MOTION_DOT":"-0.00000872","TIME_SYSTEM":"UTC","LAUNCH_DATE":"2022-07-07","ARG_OF_PERICENTER":"100.9209","OBJECT_NAME":"STARLINK-4293","TLE_LINE1":"1 52989U 22076D   23091.65819042 -.00000872  00000-0 -36714-4 0  9994","RCS_SIZE":"LARGE","ELEMENT_SET_NO":"999","DECAY_DATE":null,"ECCENTRICITY":"0.00010940","FILE":"3877516","REV_AT_EPOCH":"4071","NORAD_CAT_ID":"52989","EPOCH":"2023-04-01T15:47:47.652288","CENTER_NAME":"EARTH","INCLINATION":"53.2148","APOAPSIS":"540.530","SITE":"AFETR","OBJECT_TYPE":"PAYLOAD","OBJECT_ID":"2022-076D","SEMIMAJOR_AXIS":"6917.908","REF_FRAME":"TEME","BSTAR":"-0.00003671400000","GP_ID":"229277847","PERIAPSIS":"539.016","MEAN_ANOMALY":"259.1907","MEAN_MOTION":"15.08830968","MEAN_ELEMENT_THEORY":"SGP4","COUNTRY_CODE":"US","TLE_LINE2":"2 52989  53.2148 241.1478 0001094 100.9209 259.1907 15.08830968 40713","EPHEMERIS_TYPE":"0","CLASSIFICATION_TYPE":"U","PERIOD":"95.438"},{"LAUNCH_DATE":"2022-07-07","OBJECT_NAME":"STARLINK-4286","ARG_OF_PERICENTER":"100.9369","DECAY_DATE":null,"ELEMENT_SET_NO":"999","TLE_LINE1":"1 52990U 22076E   23091.72074905  .00019687  00000-0  12518-2 0  9991","RCS_SIZE":"LARGE","MEAN_MOTION_DDOT":"0.0000000000000","TIME_SYSTEM":"UTC","MEAN_MOTION_DOT":"0.00019687","RA_OF_ASC_NODE":"240.8644","SEMIMAJOR_AXIS":"6917.900","OBJECT_ID":"2022-076E","OBJECT_TYPE":"PAYLOAD","PERIAPSIS":"539.046","GP_ID":"229278598","REF_FRAME":"TEME","BSTAR":"0.00125180000000","MEAN_ANOMALY":"259.1740","PERIOD":"95.438","TLE_LINE2":"2 52990  53.2135 240.8644 0001038 100.9369 259.1740 15.08833724 40726","EPHEMERIS_TYPE":"0","COUNTRY_CODE":"US","CLASSIFICATION_TYPE":"U","MEAN_ELEMENT_THEORY":"SGP4","MEAN_MOTION":"15.08833724","FILE":"3877516","ECCENTRICITY":"0.00010380","NORAD_CAT_ID":"52990","REV_AT_EPOCH":"4072","APOAPSIS":"540.483","INCLINATION":"53.2135","CENTER_NAME":"EARTH","EPOCH":"2023-04-01T17:17:52.717920","SITE":"AFETR"},{"MEAN_MOTION_DDOT":"0.0000000000000","RA_OF_ASC_NODE":"240.8840","MEAN_MOTION_DOT":"0.00002318","TIME_SYSTEM":"UTC","LAUNCH_DATE":"2022-07-07","RCS_SIZE":"LARGE","TLE_LINE1":"1 52991U 22076F   23091.71706925  .00002318  00000-0  16369-3 0  9997","DECAY_DATE":null,"ELEMENT_SET_NO":"999","OBJECT_NAME":"STARLINK-4285","ARG_OF_PERICENTER":"100.8573","NORAD_CAT_ID":"52991","REV_AT_EPOCH":"4072","ECCENTRICITY":"0.00013840","FILE":"3877516","SITE":"AFETR","EPOCH":"2023-04-01T17:12:34.783200","APOAPSIS":"540.725","INCLINATION":"53.2153","CENTER_NAME":"EARTH","REF_FRAME":"TEME","BSTAR":"0.00016369000000","GP_ID":"229278848","PERIAPSIS":"538.810","OBJECT_ID":"2022-076F","OBJECT_TYPE":"PAYLOAD","SEMIMAJOR_AXIS":"6917.902","MEAN_ELEMENT_THEORY":"SGP4","MEAN_MOTION":"15.08832843","PERIOD":"95.438","TLE_LINE2":"2 52991  53.2153 240.8840 0001384 100.8573 259.2575 15.08832843 40723","CLASSIFICATION_TYPE":"U","COUNTRY_CODE":"US","EPHEMERIS_TYPE":"0","MEAN_ANOMALY":"259.2575"},{"LAUNCH_DATE":"2022-07-07","ARG_OF_PERICENTER":"91.7902","OBJECT_NAME":"STARLINK-4269","TLE_LINE1":"1 52992U 22076G   23091.71434830 -.00001756  00000-0 -92302-4 0  9990","RCS_SIZE":"LARGE","ELEMENT_SET_NO":"999","DECAY_DATE":null,"MEAN_MOTION_DDOT":"0.0000000000000","RA_OF_ASC_NODE":"240.9032","MEAN_MOTION_DOT":"-0.00001756","TIME_SYSTEM":"UTC","OBJECT_TYPE":"PAYLOAD","OBJECT_ID":"2022-076G","SEMIMAJOR_AXIS":"6917.922","BSTAR":"-0.00009230200000","REF_FRAME":"TEME","PERIAPSIS":"538.985","GP_ID":"229279098","MEAN_ANOMALY":"268.3223","MEAN_MOTION":"15.08826391","MEAN_ELEMENT_THEORY":"SGP4","EPHEMERIS_TYPE":"0","TLE_LINE2":"2 52992  53.2162 240.9032 0001160  91.7902 268.3223 15.08826391 40726","COUNTRY_CODE":"US","CLASSIFICATION_TYPE":"U","PERIOD":"95.438","ECCENTRICITY":"0.00011600","FILE":"3877516","REV_AT_EPOCH":"4072","NORAD_CAT_ID":"52992","EPOCH":"2023-04-01T17:08:39.693120","INCLINATION":"53.2162","CENTER_NAME":"EARTH","APOAPSIS":"540.589","SITE":"AFETR"}];
